COSMO-SKYMED 1          
1 31598U 07023A   26073.61221537  .00005464  00000+0  48503-3 0  9994
2 31598  97.8882 264.6838 0001598  94.6063 265.5341 14.96582605 15646
TERRASAR-X              
1 31698U 07026A   26073.53900339  .00001063  00000+0  53827-4 0  9990
2 31698  97.4465  82.5928 0001839  80.8685 279.2758 15.19147382 38859
WORLDVIEW-1 (WV-1)      
1 32060U 07041A   26073.55949621  .00010532  00000+0  44123-3 0  9999
2 32060  97.3810 194.6686 0003174  51.9021 308.2502 15.23708529 28466
YAOGAN-3                
1 32289U 07055A   26073.61015185  .00003262  00000+0  34071-3 0  9996
2 32289  97.8270 104.3999 0001569  79.6282 280.5112 14.90390554991771
COSMO-SKYMED 2          
1 32376U 07059A   26073.57878294  .00000655  00000+0  88832-4 0  9998
2 32376  97.8868 258.5441 0001325  84.4321 275.7043 14.82150259987987
RADARSAT-2              
1 32382U 07061A   26073.57712440  .00000271  00000+0  12207-3 0  9994
2 32382  98.5821  81.8495 0001232  82.9649 277.1674 14.29981035952433
CARTOSAT-2A             
1 32783U 08021A   26073.61199541  .00000583  00000+0  85327-4 0  9992
2 32783  97.7770 125.5004 0013166  62.1299 298.1245 14.79110350964826
HUANJING 1A (HJ-1A)     
1 33320U 08041A   26073.62574207  .00001062  00000+0  13408-3 0  9992
2 33320  97.6639  63.1651 0020736  88.5073 271.8517 14.83737090944385
HUANJING 1B (HJ-1B)     
1 33321U 08041B   26073.62111663  .00001475  00000+0  18507-3 0  9999
2 33321  97.6487  66.6099 0037483 131.8924 228.5498 14.83118512944395
GEOEYE 1                
1 33331U 08042A   26073.53668420  .00000617  00000+0  12461-3 0  9999
2 33331  98.1199 148.6614 0003663  14.5577 345.5731 14.64774182936290
THEOS                   
1 33396U 08049A   26073.62806432  .00000235  00000+0  13007-3 0  9997
2 33396  98.5694 133.9363 0001054  89.5469 270.5829 14.20119083904540
COSMO-SKYMED 3          
1 33412U 08054A   26073.63549574  .00003109  00000+0  21569-3 0  9999
2 33412  97.8412 290.6093 0014851 223.5475 136.4580 15.06290519942709
YAOGAN-4                
1 33446U 08061A   26073.57800584  .00001623  00000+0  20602-3 0  9994
2 33446  97.9249   7.8328 0015007  24.3833 335.8088 14.82995582931647
GOSAT (IBUKI)           
1 33492U 09002A   26072.27441068  .00000290  00000+0  59599-4 0  9992
2 33492  98.0769 184.6184 0001121  83.0514 277.0818 14.67545339917399
DEIMOS-1                
1 35681U 09041A   26073.56434634  .00001058  00000+0  16392-3 0  9997
2 35681  97.7265 234.9578 0002472 111.2327 248.9147 14.75125760892935
DUBAISAT-1              
1 35682U 09041B   26073.32194134  .00001397  00000+0  21537-3 0  9993
2 35682  97.9881 207.7135 0010781  22.2800 337.8875 14.74921175891116
