[{"OBJECT_NAME":"COSMO-SKYMED 1","OBJECT_ID":"2007-023A","EPOCH":"2026-03-14T14:41:35.407968","MEAN_MOTION":14.96582605,"ECCENTRICITY":0.00015982,"INCLINATION":97.8882,"RA_OF_ASC_NODE":264.6838,"ARG_OF_PERICENTER":94.6063,"MEAN_ANOMALY":265.5341,"EPHEMERIS_TYPE":0,"CLASSIFICATION_TYPE":"U","NORAD_CAT_ID":31598,"ELEMENT_SET_NO":999,"REV_AT_EPOCH":1564,"BSTAR":0.00048502998,"MEAN_MOTION_DOT":5.464e-5,"MEAN_MOTION_DDOT":0},{"OBJECT_NAME":"TERRASAR-X","OBJECT_ID":"2007-026A","EPOCH":"2026-03-14T12:56:09.892896","MEAN_MOTION":15.19147382,"ECCENTRICITY":0.00018394,"INCLINATION":97.4465,"RA_OF_ASC_NODE":82.5928,"ARG_OF_PERICENTER":80.8685,"MEAN_ANOMALY":279.2758,"EPHEMERIS_TYPE":0,"CLASSIFICATION_TYPE":"U","NORAD_CAT_ID":31698,"ELEMENT_SET_NO":999,"REV_AT_EPOCH":3885,"BSTAR":5.3827202e-5,"MEAN_MOTION_DOT":1.063e-5,"MEAN_MOTION_DDOT":0},{"OBJECT_NAME":"WORLDVIEW-1 (WV-1)","OBJECT_ID":"2007-041A","EPOCH":"2026-03-14T13:25:40.472544","MEAN_MOTION":15.23708529,"ECCENTRICITY":0.00031743,"INCLINATION":97.381,"RA_OF_ASC_NODE":194.6686,"ARG_OF_PERICENTER":51.9021,"MEAN_ANOMALY":308.2502,"EPHEMERIS_TYPE":0,"CLASSIFICATION_TYPE":"U","NORAD_CAT_ID":32060,"ELEMENT_SET_NO":999,"REV_AT_EPOCH":2846,"BSTAR":0.00044122914,"MEAN_MOTION_DOT":0.00010532,"MEAN_MOTION_DDOT":0},{"OBJECT_NAME":"YAOGAN-3","OBJECT_ID":"2007-055A","EPOCH":"2026-03-14T14:38:37.119840","MEAN_MOTION":14.90390554,"ECCENTRICITY":0.00015699,"INCLINATION":97.827,"RA_OF_ASC_NODE":104.3999,"ARG_OF_PERICENTER":79.6282,"MEAN_ANOMALY":280.5112,"EPHEMERIS_TYPE":0,"CLASSIFICATION_TYPE":"U","NORAD_CAT_ID":32289,"ELEMENT_SET_NO":999,"REV_AT_EPOCH":99177,"BSTAR":0.00034071377,"MEAN_MOTION_DOT":3.262e-5,"MEAN_MOTION_DDOT":0},{"OBJECT_NAME":"COSMO-SKYMED 2","OBJECT_ID":"2007-059A","EPOCH":"2026-03-14T13:53:26.846016","MEAN_MOTION":14.82150259,"ECCENTRICITY":0.00013253,"INCLINATION":97.8868,"RA_OF_ASC_NODE":258.5441,"ARG_OF_PERICENTER":84.4321,"MEAN_ANOMALY":275.7043,"EPHEMERIS_TYPE":0,"CLASSIFICATION_TYPE":"U","NORAD_CAT_ID":32376,"ELEMENT_SET_NO":999,"REV_AT_EPOCH":98798,"BSTAR":8.8831986e-5,"MEAN_MOTION_DOT":6.55e-6,"MEAN_MOTION_DDOT":0},{"OBJECT_NAME":"RADARSAT-2","OBJECT_ID":"2007-061A","EPOCH":"2026-03-14T13:51:03.548160","MEAN_MOTION":14.29981035,"ECCENTRICITY":0.00012327,"INCLINATION":98.5821,"RA_OF_ASC_NODE":81.8495,"ARG_OF_PERICENTER":82.9649,"MEAN_ANOMALY":277.1674,"EPHEMERIS_TYPE":0,"CLASSIFICATION_TYPE":"U","NORAD_CAT_ID":32382,"ELEMENT_SET_NO":999,"REV_AT_EPOCH":95243,"BSTAR":0.00012207393,"MEAN_MOTION_DOT":2.71e-6,"MEAN_MOTION_DDOT":0},{"OBJECT_NAME":"CARTOSAT-2A","OBJECT_ID":"2008-021A","EPOCH":"2026-03-14T14:41:16.403424","MEAN_MOTION":14.7911035,"ECCENTRICITY":0.00131663,"INCLINATION":97.777,"RA_OF_ASC_NODE":125.5004,"ARG_OF_PERICENTER":62.1299,"MEAN_ANOMALY":298.1245,"EPHEMERIS_TYPE":0,"CLASSIFICATION_TYPE":"U","NORAD_CAT_ID":32783,"ELEMENT_SET_NO":999,"REV_AT_EPOCH":96482,"BSTAR":8.5326519e-5,"MEAN_MOTION_DOT":5.83e-6,"MEAN_MOTION_DDOT":0},{"OBJECT_NAME":"HUANJING 1A (HJ-1A)","OBJECT_ID":"2008-041A","EPOCH":"2026-03-14T15:01:04.114848","MEAN_MOTION":14.8373709,"ECCENTRICITY":0.00207368,"INCLINATION":97.6639,"RA_OF_ASC_NODE":63.1651,"ARG_OF_PERICENTER":88.5073,"MEAN_ANOMALY":271.8517,"EPHEMERIS_TYPE":0,"CLASSIFICATION_TYPE":"U","NORAD_CAT_ID":33320,"ELEMENT_SET_NO":999,"REV_AT_EPOCH":94438,"BSTAR":0.00013408199,"MEAN_MOTION_DOT":1.062e-5,"MEAN_MOTION_DDOT":0},{"OBJECT_NAME":"HUANJING 1B (HJ-1B)","OBJECT_ID":"2008-041B","EPOCH":"2026-03-14T14:54:24.476832","MEAN_MOTION":14.83118512,"ECCENTRICITY":0.0037483,"INCLINATION":97.6487,"RA_OF_ASC_NODE":66.6099,"ARG_OF_PERICENTER":131.8924,"MEAN_ANOMALY":228.5498,"EPHEMERIS_TYPE":0,"CLASSIFICATION_TYPE":"U","NORAD_CAT_ID":33321,"ELEMENT_SET_NO":999,"REV_AT_EPOCH":94439,"BSTAR":0.00018507388,"MEAN_MOTION_DOT":1.475e-5,"MEAN_MOTION_DDOT":0},{"OBJECT_NAME":"GEOEYE 1","OBJECT_ID":"2008-042A","EPOCH":"2026-03-14T12:52:49.514880","MEAN_MOTION":14.64774182,"ECCENTRICITY":0.00036631,"INCLINATION":98.1199,"RA_OF_ASC_NODE":148.6614,"ARG_OF_PERICENTER":14.5577,"MEAN_ANOMALY":345.5731,"EPHEMERIS_TYPE":0,"CLASSIFICATION_TYPE":"U","NORAD_CAT_ID":33331,"ELEMENT_SET_NO":999,"REV_AT_EPOCH":93629,"BSTAR":0.00012461202,"MEAN_MOTION_DOT":6.17e-6,"MEAN_MOTION_DDOT":0},{"OBJECT_NAME":"THEOS","OBJECT_ID":"2008-049A","EPOCH":"2026-03-14T15:04:24.757248","MEAN_MOTION":14.20119083,"ECCENTRICITY":0.00010549,"INCLINATION":98.5694,"RA_OF_ASC_NODE":133.9363,"ARG_OF_PERICENTER":89.5469,"MEAN_ANOMALY":270.5829,"EPHEMERIS_TYPE":0,"CLASSIFICATION_TYPE":"U","NORAD_CAT_ID":33396,"ELEMENT_SET_NO":999,"REV_AT_EPOCH":90454,"BSTAR":0.00013007297,"MEAN_MOTION_DOT":2.35e-6,"MEAN_MOTION_DDOT":0},{"OBJECT_NAME":"COSMO-SKYMED 3","OBJECT_ID":"2008-054A","EPOCH":"2026-03-14T15:15:06.831936","MEAN_MOTION":15.06290519,"ECCENTRICITY":0.00148511,"INCLINATION":97.8412,"RA_OF_ASC_NODE":290.6093,"ARG_OF_PERICENTER":223.5475,"MEAN_ANOMALY":136.458,"EPHEMERIS_TYPE":0,"CLASSIFICATION_TYPE":"U","NORAD_CAT_ID":33412,"ELEMENT_SET_NO":999,"REV_AT_EPOCH":94270,"BSTAR":0.00021568598,"MEAN_MOTION_DOT":3.109e-5,"MEAN_MOTION_DDOT":0},{"OBJECT_NAME":"YAOGAN-4","OBJECT_ID":"2008-061A","EPOCH":"2026-03-14T13:52:19.704576","MEAN_MOTION":14.82995582,"ECCENTRICITY":0.00150078,"INCLINATION":97.9249,"RA_OF_ASC_NODE":7.8328,"ARG_OF_PERICENTER":24.3833,"MEAN_ANOMALY":335.8088,"EPHEMERIS_TYPE":0,"CLASSIFICATION_TYPE":"U","NORAD_CAT_ID":33446,"ELEMENT_SET_NO":999,"REV_AT_EPOCH":93164,"BSTAR":0.00020602168,"MEAN_MOTION_DOT":1.623e-5,"MEAN_MOTION_DDOT":0},{"OBJECT_NAME":"GOSAT (IBUKI)","OBJECT_ID":"2009-002A","EPOCH":"2026-03-13T06:35:09.082752","MEAN_MOTION":14.67545339,"ECCENTRICITY":0.0001121,"INCLINATION":98.0769,"RA_OF_ASC_NODE":184.6184,"ARG_OF_PERICENTER":83.0514,"MEAN_ANOMALY":277.0818,"EPHEMERIS_TYPE":0,"CLASSIFICATION_TYPE":"U","NORAD_CAT_ID":33492,"ELEMENT_SET_NO":999,"REV_AT_EPOCH":91739,"BSTAR":5.959863e-5,"MEAN_MOTION_DOT":2.9e-6,"MEAN_MOTION_DDOT":0},{"OBJECT_NAME":"DEIMOS-1","OBJECT_ID":"2009-041A","EPOCH":"2026-03-14T13:32:39.523776","MEAN_MOTION":14.7512576,"ECCENTRICITY":0.00024726,"INCLINATION":97.7265,"RA_OF_ASC_NODE":234.9578,"ARG_OF_PERICENTER":111.2327,"MEAN_ANOMALY":248.9147,"EPHEMERIS_TYPE":0,"CLASSIFICATION_TYPE":"U","NORAD_CAT_ID":35681,"ELEMENT_SET_NO":999,"REV_AT_EPOCH":89293,"BSTAR":0.00016392212,"MEAN_MOTION_DOT":1.058e-5,"MEAN_MOTION_DDOT":0},{"OBJECT_NAME":"DUBAISAT-1","OBJECT_ID":"2009-041B","EPOCH":"2026-03-14T07:43:35.731776","MEAN_MOTION":14.74921175,"ECCENTRICITY":0.00107819,"INCLINATION":97.9881,"RA_OF_ASC_NODE":207.7135,"ARG_OF_PERICENTER":22.28,"MEAN_ANOMALY":337.8875,"EPHEMERIS_TYPE":0,"CLASSIFICATION_TYPE":"U","NORAD_CAT_ID":35682,"ELEMENT_SET_NO":999,"REV_AT_EPOCH":89111,"BSTAR":0.00021537442,"MEAN_MOTION_DOT":1.397e-5,"MEAN_MOTION_DDOT":0}]
